     2.100          NAVIGATION                              RINEX VERSION / TYPE
fic2rin                                 05/14/2011 00:03:16 PGM / RUN BY / DATE
                                                            END OF HEADER
32 11  5 13 17 59 44.0 -.253272242844D-03 -.727595761418D-11  .000000000000D+00
     .210000000000D+02  .815937500000D+02  .490699011012D-08  .252828320974D+01
     .404193997383D-05  .121832995210D-01  .423938035965D-05  .515368453217D+04
     .496784000000D+06  .238418579102D-06  .514580237715D+00  .212341547012D-06
     .955418487941D+00  .291093750000D+03 -.789633085948D+00 -.839249243814D-08
     .199651173416D-09  .100000000000D+01  .163500000000D+04  .000000000000D+00
     .240000000000D+01  .000000000000D+00 -.279396772385D-08  .210000000000D+02
     .495726000000D+06  .400000000000D+01
 9 11  5 13 17 59 44.0  .797118991613D-04  .238742359215D-11  .000000000000D+00
     .440000000000D+02 -.486250000000D+02  .386337521080D-08  .112649803247D+01
    -.269897282124D-05  .173133506905D-01  .127069652081D-04  .515367732048D+04
     .496784000000D+06 -.270083546638D-06  .250278942206D+01 -.238418579102D-06
     .983468291939D+00  .151375000000D+03  .156571529339D+01 -.790318634229D-08
     .514307137242D-10  .100000000000D+01  .163500000000D+04  .000000000000D+00
     .240000000000D+01  .000000000000D+00 -.558793544769D-08  .440000000000D+02
     .496356000000D+06  .400000000000D+01
 3 11  5 13 19 59 44.0  .714685302228D-03  .500222085975D-11  .000000000000D+00
     .110000000000D+02 -.500312500000D+02  .549915763342D-08 -.174570459126D+01
    -.251084566116D-05  .141855143011D-01  .499933958054D-05  .515364821053D+04
     .503984000000D+06  .366941094398D-06 -.179382426494D+01 -.596046447754D-07
     .928365552895D+00  .262937500000D+03  .108696484088D+01 -.850571143988D-08
    -.344657213499D-09  .100000000000D+01  .163500000000D+04  .000000000000D+00
     .240000000000D+01  .000000000000D+00 -.465661287308D-08  .110000000000D+02
     .496806000000D+06  .400000000000D+01
 9 11  5 13 19 59 44.0  .797291286290D-04  .238742359215D-11  .000000000000D+00
     .450000000000D+02 -.432812500000D+02  .375729936374D-08  .217672963968D+01
    -.236742198467D-05  .173130008625D-01  .125505030155D-04  .515367553520D+04
     .503984000000D+06  .219792127609D-06  .250273467381D+01 -.119209289551D-06
     .983470866675D+00  .143218750000D+03  .156565822496D+01 -.740816572270D-08
     .221437795202D-10  .100000000000D+01  .163500000000D+04  .000000000000D+00
     .240000000000D+01  .000000000000D+00 -.558793544769D-08  .450000000000D+02
     .496806000000D+06  .400000000000D+01
24 11  5 13 19 59 44.0  .389643944800D-03  .318323145621D-11  .000000000000D+00
     .200000000000D+01  .414375000000D+02  .443875632059D-08 -.242353158973D+01
     .227615237236D-05  .614763807971D-02  .124275684357D-04  .515371944427D+04
     .503984000000D+06 -.651925802231D-07 -.565385186768D+00  .223517417908D-07
     .948508947376D+00  .135843750000D+03 -.284791234949D+00 -.793604485384D-08
     .421446126351D-10  .100000000000D+01  .163500000000D+04  .000000000000D+00
     .240000000000D+01  .000000000000D+00 -.139698386192D-08  .200000000000D+01
     .496806000000D+06  .400000000000D+01
26 11  5 13 19 59 44.0 -.294717028737D-04 -.109139364213D-10  .000000000000D+00
     .800000000000D+01 -.723437500000D+02  .414410118988D-08 -.200922172772D+01
    -.373274087906D-05  .205144449137D-01  .527873635292D-05  .515365055275D+04
     .503984000000D+06  .266358256340D-06  .155115926435D+01  .447034835815D-07
     .987192980847D+00  .283312500000D+03  .114557026663D+01 -.781246827781D-08
    -.158935191717D-09  .100000000000D+01  .163500000000D+04  .000000000000D+00
     .240000000000D+01  .000000000000D+00 -.605359673500D-08  .800000000000D+01
     .496806000000D+06  .400000000000D+01
32 11  5 13 19 59 44.0 -.253324396908D-03 -.727595761418D-11  .000000000000D+00
     .220000000000D+02  .924062500000D+02  .478269921862D-08 -.270472129592D+01
     .496581196785D-05  .121848114068D-01  .419653952122D-05  .515368171501D+04
     .503984000000D+06 -.763684511185D-07  .514519334973D+00  .214204192162D-06
     .955421188487D+00  .291718750000D+03 -.789635916694D+00 -.825998691875D-08
     .385730352932D-09  .100000000000D+01  .163500000000D+04  .000000000000D+00
     .240000000000D+01  .000000000000D+00 -.279396772385D-08  .220000000000D+02
     .496806000000D+06  .400000000000D+01
 2 11  5 13 20  0  0.0  .336176715791D-03  .204636307899D-11  .000000000000D+00
     .190000000000D+02  .355625000000D+02  .463126433932D-08 -.183370259401D+01
     .174157321453D-05  .102428260725D-01  .124629586935D-04  .515376042175D+04
     .504000000000D+06 -.707805156708D-07 -.635748658581D+00 -.128522515297D-06
     .939153412172D+00  .128812500000D+03 -.300113079511D+01 -.799711882638D-08
     .696457581682D-10  .100000000000D+01  .163500000000D+04  .000000000000D+00
     .240000000000D+01  .000000000000D+00 -.172294676304D-07  .190000000000D+02
     .496806000000D+06  .400000000000D+01
 4 11  5 13 20  0  0.0  .114615540951D-03  .105728759081D-10  .000000000000D+00
     .990000000000D+02  .402500000000D+02  .477805616808D-08  .131093972883D+01
     .219792127609D-05  .956666050479D-02  .120867043734D-04  .515365079880D+04
     .504000000000D+06 -.137835741043D-06 -.618356272769D+00  .149011611938D-07
     .938257186132D+00  .138406250000D+03  .721172163967D+00 -.820069873488D-08
    -.192865176466D-09  .100000000000D+01  .163500000000D+04  .000000000000D+00
     .340000000000D+01  .000000000000D+00 -.605359673500D-08  .990000000000D+02
     .496806000000D+06  .400000000000D+01
 5 11  5 13 20  0  0.0 -.159122981131D-03 -.568434188608D-11  .000000000000D+00
     .290000000000D+02  .844062500000D+02  .488234622646D-08  .531771087543D-01
     .453367829323D-05  .223280861974D-02  .477582216263D-05  .515366767693D+04
     .504000000000D+06  .800937414169D-07  .425513119804D+00 -.409781932831D-07
     .954714606370D+00  .283250000000D+03  .233372041705D+00 -.849892544293D-08
     .370015412627D-09  .100000000000D+01  .163500000000D+04  .000000000000D+00
     .240000000000D+01  .000000000000D+00 -.102445483208D-07  .290000000000D+02
     .496806000000D+06  .400000000000D+01
 6 11  5 13 20  0  0.0  .449663028121D-03 -.950421963353D-10  .000000000000D+00
     .630000000000D+02 -.570000000000D+02  .543486924126D-08  .300887087669D+00
    -.313296914101D-05  .675597705413D-02  .611133873463D-05  .515363762856D+04
     .504000000000D+06  .113621354103D-06 -.172026459362D+01 -.124797224998D-06
     .935477072706D+00  .251406250000D+03 -.798571339862D+00 -.871286292571D-08
    -.495020619596D-09  .100000000000D+01  .163500000000D+04  .000000000000D+00
     .240000000000D+01  .000000000000D+00 -.512227416039D-08  .630000000000D+02
     .496806000000D+06  .400000000000D+01
 7 11  5 13 20  0  0.0  .108978711069D-04  .113686837722D-11  .000000000000D+00
     .240000000000D+02 -.364062500000D+02  .404088260469D-08  .288079811447D+01
    -.183284282684D-05  .439171004109D-02  .113714486361D-04  .515366830254D+04
     .504000000000D+06 -.949949026108D-07  .253127474847D+01 -.260770320892D-07
     .974563808026D+00  .170531250000D+03 -.312948354961D+01 -.773425073402D-08
     .914323799542D-10  .100000000000D+01  .163500000000D+04  .000000000000D+00
     .240000000000D+01  .000000000000D+00 -.107102096081D-07  .240000000000D+02
     .496806000000D+06  .400000000000D+01
 8 11  5 13 20  0  0.0  .791996717453D-05  .113686837722D-12  .000000000000D+00
     .550000000000D+02 -.270937500000D+02  .359550691015D-08  .235072875176D+01
    -.128522515297D-05  .115635382244D-01  .120811164379D-04  .515360011101D+04
     .504000000000D+06 -.240281224251D-06  .260648824722D+01  .143423676491D-06
     .996306760061D+00  .169406250000D+03 -.307743560149D+01 -.750531262640D-08
     .105361531588D-09  .100000000000D+01  .163500000000D+04  .000000000000D+00
     .240000000000D+01  .000000000000D+00 -.419095158577D-08  .550000000000D+02
     .496806000000D+06  .400000000000D+01
10 11  5 13 20  0  0.0 -.489410012960D-06 -.125055521494D-11  .000000000000D+00
     .230000000000D+02  .825937500000D+02  .506306803996D-08  .296089267889D+00
     .435300171375D-05  .101420189021D-01  .451877713203D-05  .515360576248D+04
     .504000000000D+06  .279396772385D-07  .449270771897D+00  .173225998878D-06
     .949650437484D+00  .288031250000D+03  .704999913276D+00 -.867178978628D-08
     .270725562521D-09  .100000000000D+01  .163500000000D+04  .000000000000D+00
     .240000000000D+01  .000000000000D+00 -.232830643654D-08  .230000000000D+02
     .496806000000D+06  .400000000000D+01
11 11  5 13 20  0  0.0 -.150567386299D-03 -.318323145621D-11  .000000000000D+00
     .161000000000D+03 -.193750000000D+02  .583095716849D-08  .303287416443D+01
    -.977888703346D-06  .117071095156D-01  .115875154734D-04  .515367023277D+04
     .504000000000D+06  .577419996262D-07 -.872287923779D+00 -.726431608200D-07
     .887886221968D+00  .116093750000D+03  .926747975116D+00 -.842213653008D-08
    -.210008747707D-09  .100000000000D+01  .163500000000D+04  .000000000000D+00
     .340000000000D+01  .000000000000D+00 -.116415321827D-07  .161000000000D+03
     .496806000000D+06  .400000000000D+01
12 11  5 13 20  0  0.0 -.485265627503D-05  .272848410532D-11  .000000000000D+00
     .127000000000D+03  .310312500000D+02  .448482966830D-08  .280107678288D+01
     .154227018356D-05  .374048796948D-02  .681169331074D-05  .515374623108D+04
     .504000000000D+06 -.651925802231D-07 -.269754998079D+01  .223517417908D-07
     .975208861272D+00  .254937500000D+03 -.193516007507D+00 -.805997858760D-08
     .361800784741D-09  .100000000000D+01  .163500000000D+04  .000000000000D+00
     .340000000000D+01  .000000000000D+00 -.121071934700D-07  .127000000000D+03
     .496806000000D+06  .400000000000D+01
